start=new Date('2022-01-13T00:00:00.000Z').valueOf();
sats=[{"OBJECT_ID":"2020-088AR","FILE":"3270709","PERIAPSIS":"545.442","EPOCH":"2022-01-12T10:05:54.162528","REV_AT_EPOCH":"6329","MEAN_MOTION":"15.06401351","PERIOD":"95.592","REF_FRAME":"TEME","LAUNCH_DATE":"2020-11-25","SITE":"AFETR","BSTAR":"0.00018913000000","MEAN_ELEMENT_THEORY":"SGP4","MEAN_MOTION_DDOT":"0.0000000000000","MEAN_ANOMALY":"299.5739","ARG_OF_PERICENTER":"60.5504","CENTER_NAME":"EARTH","DECAY_DATE":null,"TLE_LINE1":"1 47161U 20088AR  22012.42076577  .00002536  00000-0  18913-3 0  9993","TLE_LINE2":"2 47161  53.0541 262.8990 0002552  60.5504 299.5739 15.06401351 63299","SEMIMAJOR_AXIS":"6925.344","TIME_SYSTEM":"UTC","COUNTRY_CODE":"US","RA_OF_ASC_NODE":"262.8990","ECCENTRICITY":"0.00025520","GP_ID":"193733628","APOAPSIS":"548.977","INCLINATION":"53.0541","MEAN_MOTION_DOT":"0.00002536","OBJECT_TYPE":"PAYLOAD","OBJECT_NAME":"STARLINK-1876","EPHEMERIS_TYPE":"0","NORAD_CAT_ID":"47161","CLASSIFICATION_TYPE":"U","RCS_SIZE":"LARGE","ELEMENT_SET_NO":"999"},{"SITE":"AFETR","MEAN_ELEMENT_THEORY":"SGP4","BSTAR":"-0.00004876600000","LAUNCH_DATE":"2020-11-25","MEAN_ANOMALY":"294.5650","MEAN_MOTION_DDOT":"0.0000000000000","PERIAPSIS":"545.564","EPOCH":"2022-01-12T09:59:15.492192","OBJECT_ID":"2020-088AS","FILE":"3270709","MEAN_MOTION":"15.06395551","REF_FRAME":"TEME","PERIOD":"95.592","REV_AT_EPOCH":"6315","APOAPSIS":"548.891","GP_ID":"193733880","ECCENTRICITY":"0.00024020","OBJECT_TYPE":"PAYLOAD","NORAD_CAT_ID":"47162","OBJECT_NAME":"STARLINK-1877","EPHEMERIS_TYPE":"0","INCLINATION":"53.0559","MEAN_MOTION_DOT":"-0.00001008","COUNTRY_CODE":"US","RA_OF_ASC_NODE":"272.9176","ELEMENT_SET_NO":"999","CLASSIFICATION_TYPE":"U","RCS_SIZE":"LARGE","TLE_LINE1":"1 47162U 20088AS  22012.41615153 -.00001008  00000-0 -48766-4 0  9997","DECAY_DATE":null,"ARG_OF_PERICENTER":"65.5589","CENTER_NAME":"EARTH","SEMIMAJOR_AXIS":"6925.362","TIME_SYSTEM":"UTC","TLE_LINE2":"2 47162  53.0559 272.9176 0002402  65.5589 294.5650 15.06395551 63155"},{"MEAN_MOTION":"15.06395122","PERIOD":"95.592","REF_FRAME":"TEME","REV_AT_EPOCH":"6301","PERIAPSIS":"545.724","EPOCH":"2022-01-12T10:45:41.551776","OBJECT_ID":"2020-088AT","FILE":"3270709","MEAN_ANOMALY":"296.8090","MEAN_MOTION_DDOT":"0.0000000000000","SITE":"AFETR","BSTAR":"-0.00007382400000","MEAN_ELEMENT_THEORY":"SGP4","LAUNCH_DATE":"2020-11-25","SEMIMAJOR_AXIS":"6925.364","TIME_SYSTEM":"UTC","TLE_LINE2":"2 47163  53.0462 282.8014 0002172  63.3121 296.8090 15.06395122 63014","TLE_LINE1":"1 47163U 20088AT  22012.44839759 -.00001381  00000-0 -73824-4 0  9998","DECAY_DATE":null,"ARG_OF_PERICENTER":"63.3121","CENTER_NAME":"EARTH","ELEMENT_SET_NO":"999","CLASSIFICATION_TYPE":"U","RCS_SIZE":"LARGE","ECCENTRICITY":"0.00021720","GP_ID":"193734132","APOAPSIS":"548.733","INCLINATION":"53.0462","MEAN_MOTION_DOT":"-0.00001381","EPHEMERIS_TYPE":"0","OBJECT_TYPE":"PAYLOAD","OBJECT_NAME":"STARLINK-1878","NORAD_CAT_ID":"47163","COUNTRY_CODE":"US","RA_OF_ASC_NODE":"282.8014"},{"INCLINATION":"53.0546","MEAN_MOTION_DOT":"-0.00000262","OBJECT_TYPE":"PAYLOAD","EPHEMERIS_TYPE":"0","OBJECT_NAME":"STARLINK-1879","NORAD_CAT_ID":"47164","ECCENTRICITY":"0.00019920","GP_ID":"193734882","APOAPSIS":"548.628","RA_OF_ASC_NODE":"252.2332","COUNTRY_CODE":"US","ELEMENT_SET_NO":"999","RCS_SIZE":"LARGE","CLASSIFICATION_TYPE":"U","TLE_LINE1":"1 47164U 20088AU  22012.56911778 -.00000262  00000-0  13178-5 0  9997","DECAY_DATE":null,"CENTER_NAME":"EARTH","ARG_OF_PERICENTER":"66.5307","SEMIMAJOR_AXIS":"6925.384","TIME_SYSTEM":"UTC","TLE_LINE2":"2 47164  53.0546 252.2332 0001992  66.5307 293.5891 15.06388554 63454","BSTAR":"0.00000131780000","MEAN_ELEMENT_THEORY":"SGP4","SITE":"AFETR","LAUNCH_DATE":"2020-11-25","MEAN_ANOMALY":"293.5891","MEAN_MOTION_DDOT":"0.0000000000000","EPOCH":"2022-01-12T13:39:31.776192","PERIAPSIS":"545.869","FILE":"3270709","OBJECT_ID":"2020-088AU","PERIOD":"95.593","REF_FRAME":"TEME","MEAN_MOTION":"15.06388554","REV_AT_EPOCH":"6345"},{"RCS_SIZE":"LARGE","CLASSIFICATION_TYPE":"U","ELEMENT_SET_NO":"999","RA_OF_ASC_NODE":"272.8054","COUNTRY_CODE":"US","INCLINATION":"53.0541","MEAN_MOTION_DOT":"0.00000067","NORAD_CAT_ID":"47165","OBJECT_TYPE":"PAYLOAD","EPHEMERIS_TYPE":"0","OBJECT_NAME":"STARLINK-1880","ECCENTRICITY":"0.00022920","GP_ID":"193733129","APOAPSIS":"548.806","TLE_LINE2":"2 47165  53.0541 272.8054 0002292  68.0587 292.0645 15.06398457 63151","TIME_SYSTEM":"UTC","SEMIMAJOR_AXIS":"6925.353","CENTER_NAME":"EARTH","ARG_OF_PERICENTER":"68.0587","TLE_LINE1":"1 47165U 20088AV  22012.44194255  .00000067  00000-0  23430-4 0  9991","DECAY_DATE":null,"MEAN_MOTION_DDOT":"0.0000000000000","MEAN_ANOMALY":"292.0645","LAUNCH_DATE":"2020-11-25","BSTAR":"0.00002343000000","MEAN_ELEMENT_THEORY":"SGP4","SITE":"AFETR","REV_AT_EPOCH":"6315","PERIOD":"95.592","REF_FRAME":"TEME","MEAN_MOTION":"15.06398457","FILE":"3270709","OBJECT_ID":"2020-088AV","EPOCH":"2022-01-12T10:36:23.836320","PERIAPSIS":"545.631"},{"DECAY_DATE":null,"TLE_LINE1":"1 47166U 20088AW  22011.29263870  .00011867  00000-0  36836-3 0  9997","CENTER_NAME":"EARTH","ARG_OF_PERICENTER":"115.7000","SEMIMAJOR_AXIS":"6842.547","TIME_SYSTEM":"UTC","TLE_LINE2":"2 47166  53.0478 227.7503 0002488 115.7000 244.4258 15.33825899 63691","EPHEMERIS_TYPE":"0","OBJECT_TYPE":"PAYLOAD","OBJECT_NAME":"STARLINK-1881","NORAD_CAT_ID":"47166","MEAN_MOTION_DOT":"0.00011867","INCLINATION":"53.0478","APOAPSIS":"466.115","ECCENTRICITY":"0.00024880","GP_ID":"193663373","RA_OF_ASC_NODE":"227.7503","COUNTRY_CODE":"US","ELEMENT_SET_NO":"999","RCS_SIZE":"LARGE","CLASSIFICATION_TYPE":"U","EPOCH":"2022-01-11T07:01:23.983680","PERIAPSIS":"462.710","FILE":"3269657","OBJECT_ID":"2020-088AW","REF_FRAME":"TEME","PERIOD":"93.883","MEAN_MOTION":"15.33825899","REV_AT_EPOCH":"6369","MEAN_ELEMENT_THEORY":"SGP4","BSTAR":"0.00036836000000","SITE":"AFETR","LAUNCH_DATE":"2020-11-25","MEAN_ANOMALY":"244.4258","MEAN_MOTION_DDOT":"0.0000000000000"},{"OBJECT_ID":"2020-088AX","FILE":"3270709","PERIAPSIS":"545.035","EPOCH":"2022-01-12T10:15:10.689120","REV_AT_EPOCH":"6315","MEAN_MOTION":"15.06385855","PERIOD":"95.593","REF_FRAME":"TEME","LAUNCH_DATE":"2020-11-25","SITE":"AFETR","BSTAR":"-0.00009026100000","MEAN_ELEMENT_THEORY":"SGP4","MEAN_MOTION_DDOT":"0.0000000000000","MEAN_ANOMALY":"191.3551","ARG_OF_PERICENTER":"168.7510","CENTER_NAME":"EARTH","DECAY_DATE":null,"TLE_LINE1":"1 47167U 20088AX  22012.42720705 -.00001626  00000-0 -90261-4 0  9996","TLE_LINE2":"2 47167  53.0532 272.8785 0003209 168.7510 191.3551 15.06385855 63152","SEMIMAJOR_AXIS":"6925.392","TIME_SYSTEM":"UTC","COUNTRY_CODE":"US","RA_OF_ASC_NODE":"272.8785","ECCENTRICITY":"0.00032090","GP_ID":"193734632","APOAPSIS":"549.479","MEAN_MOTION_DOT":"-0.00001626","INCLINATION":"53.0532","OBJECT_NAME":"STARLINK-1884","OBJECT_TYPE":"PAYLOAD","EPHEMERIS_TYPE":"0","NORAD_CAT_ID":"47167","CLASSIFICATION_TYPE":"U","RCS_SIZE":"LARGE","ELEMENT_SET_NO":"999"},{"OBJECT_ID":"2020-088AY","FILE":"3270709","PERIAPSIS":"472.885","EPOCH":"2022-01-12T10:15:29.147616","REV_AT_EPOCH":"6326","MEAN_MOTION":"15.30503898","REF_FRAME":"TEME","PERIOD":"94.087","LAUNCH_DATE":"2020-11-25","SITE":"AFETR","MEAN_ELEMENT_THEORY":"SGP4","BSTAR":"0.00154850000000","MEAN_MOTION_DDOT":"0.0000000000000","MEAN_ANOMALY":"326.6639","ARG_OF_PERICENTER":"33.4491","CENTER_NAME":"EARTH","TLE_LINE1":"1 47168U 20088AY  22012.42742069  .00046228  00000-0  15485-2 0  9992","DECAY_DATE":null,"TLE_LINE2":"2 47168  53.0579 265.2216 0002080  33.4491 326.6639 15.30503898 63269","SEMIMAJOR_AXIS":"6852.445","TIME_SYSTEM":"UTC","COUNTRY_CODE":"US","RA_OF_ASC_NODE":"265.2216","APOAPSIS":"475.735","ECCENTRICITY":"0.00020800","GP_ID":"193734383","EPHEMERIS_TYPE":"0","OBJECT_TYPE":"PAYLOAD","OBJECT_NAME":"STARLINK-1885","NORAD_CAT_ID":"47168","INCLINATION":"53.0579","MEAN_MOTION_DOT":"0.00046228","CLASSIFICATION_TYPE":"U","RCS_SIZE":"LARGE","ELEMENT_SET_NO":"999"},{"REF_FRAME":"TEME","PERIOD":"95.592","MEAN_MOTION":"15.06400437","REV_AT_EPOCH":"6317","EPOCH":"2022-01-12T13:05:00.599712","PERIAPSIS":"545.603","FILE":"3270709","OBJECT_ID":"2020-088BA","MEAN_ANOMALY":"301.2220","MEAN_MOTION_DDOT":"0.0000000000000","MEAN_ELEMENT_THEORY":"SGP4","BSTAR":"-0.00003040800000","SITE":"AFETR","LAUNCH_DATE":"2020-11-25","SEMIMAJOR_AXIS":"6925.347","TIME_SYSTEM":"UTC","TLE_LINE2":"2 47170  53.0543 272.3487 0002324  58.8997 301.2220 15.06400437 63178","DECAY_DATE":null,"TLE_LINE1":"1 47170U 20088BA  22012.54514583 -.00000735  00000-0 -30408-4 0  9995","CENTER_NAME":"EARTH","ARG_OF_PERICENTER":"58.8997","ELEMENT_SET_NO":"999","RCS_SIZE":"LARGE","CLASSIFICATION_TYPE":"U","EPHEMERIS_TYPE":"0","OBJECT_TYPE":"PAYLOAD","OBJECT_NAME":"STARLINK-1887","NORAD_CAT_ID":"47170","MEAN_MOTION_DOT":"-0.00000735","INCLINATION":"53.0543","APOAPSIS":"548.822","GP_ID":"193733629","ECCENTRICITY":"0.00023240","RA_OF_ASC_NODE":"272.3487","COUNTRY_CODE":"US"},{"REF_FRAME":"TEME","PERIOD":"95.592","MEAN_MOTION":"15.06400615","REV_AT_EPOCH":"6324","EPOCH":"2022-01-12T02:24:05.861376","PERIAPSIS":"545.649","FILE":"3270709","OBJECT_ID":"2020-088BB","MEAN_ANOMALY":"297.2365","MEAN_MOTION_DDOT":"0.0000000000000","MEAN_ELEMENT_THEORY":"SGP4","BSTAR":"0.00001284700000","SITE":"AFETR","LAUNCH_DATE":"2020-11-25","SEMIMAJOR_AXIS":"6925.347","TIME_SYSTEM":"UTC","TLE_LINE2":"2 47171  53.0533 264.3523 0002256  62.8853 297.2365 15.06400615 63240","DECAY_DATE":null,"TLE_LINE1":"1 47171U 20088BB  22012.10006784 -.00000090  00000-0  12847-4 0  9997","CENTER_NAME":"EARTH","ARG_OF_PERICENTER":"62.8853","ELEMENT_SET_NO":"999","RCS_SIZE":"LARGE","CLASSIFICATION_TYPE":"U","OBJECT_NAME":"STARLINK-1888","OBJECT_TYPE":"PAYLOAD","NORAD_CAT_ID":"47171","EPHEMERIS_TYPE":"0","INCLINATION":"53.0533","MEAN_MOTION_DOT":"-0.00000090","APOAPSIS":"548.774","ECCENTRICITY":"0.00022560","GP_ID":"193733881","RA_OF_ASC_NODE":"264.3523","COUNTRY_CODE":"US"}];
